[{"OBJECT_NAME":"STARLINK-35550","OBJECT_ID":"2025-247C","EPOCH":"2026-03-09T14:23:51.362592","MEAN_MOTION":15.30193104,"ECCENTRICITY":0.0001087,"INCLINATION":53.1601,"RA_OF_ASC_NODE":191.5541,"ARG_OF_PERICENTER":64.038,"MEAN_ANOMALY":296.0732,"EPHEMERIS_TYPE":0,"CLASSIFICATION_TYPE":"U","NORAD_CAT_ID":66267,"ELEMENT_SET_NO":999,"REV_AT_EPOCH":2102,"BSTAR":0.00092795,"MEAN_MOTION_DOT":0.00027219,"MEAN_MOTION_DDOT":0},{"OBJECT_NAME":"CZ-6A DEB","OBJECT_ID":"2024-140JQ","EPOCH":"2026-03-09T16:05:49.477056","MEAN_MOTION":15.15394204,"ECCENTRICITY":0.00800164,"INCLINATION":89.0638,"RA_OF_ASC_NODE":284.0631,"ARG_OF_PERICENTER":105.771,"MEAN_ANOMALY":255.2376,"EPHEMERIS_TYPE":0,"CLASSIFICATION_TYPE":"U","NORAD_CAT_ID":60861,"ELEMENT_SET_NO":999,"REV_AT_EPOCH":8511,"BSTAR":0.0025246282,"MEAN_MOTION_DOT":0.00051962,"MEAN_MOTION_DDOT":0}]
